NORAD_CAT_ID,OBJECT_NAME,OBJECT_TYPE,EPOCH,MEAN_MOTION,ECCENTRICITY,INCLINATION,RA_OF_ASC_NODE,ARG_OF_PERICENTER,MEAN_ANOMALY,BSTAR,MEAN_MOTION_DOT,MEAN_MOTION_DDOT,TLE_LINE0,TLE_LINE1,TLE_LINE2,SEMIMAJOR_AXIS,PERIOD,APOGEE,PERIGEE,DECAYED
54176.0,STARLINK-5154,PAYLOAD,2022-11-24 14:00:01,15.73148543,0.000401,53.2167,7.6141,11.0103,181.5726,0.00063351,0.00089068,0.0,0 STARLINK-5154,1 54176U 22141V   22328.58334491  .00089068  00000-0  63351-3 0  9999,2 54176  53.2167   7.6141 0004010  11.0103 181.5726 15.73148543  4363,6728.042,91.536,352.605,347.209,0.0
54176.0,STARLINK-5154,PAYLOAD,2022-11-24 22:00:00,15.73188031,0.0003794,53.2169,5.9625,12.0652,269.43,0.00044926,0.00062889,0.0,0 STARLINK-5154,1 54176U 22141V   22328.91667824  .00062889  00000-0  44926-3 0  9994,2 54176  53.2169   5.9625 0003794  12.0652 269.4300 15.73188031  1302,6727.929,91.534,352.347,347.242,0.0
54176.0,STARLINK-5154,PAYLOAD,2022-11-25 06:00:00,15.73255856,0.0003838,53.217,4.3135,12.257,358.1764,-0.00060443,-0.00084844,0.0,0 STARLINK-5154,1 54176U 22141V   22329.25001157 -.00084844  00000-0 -60443-3 0  9992,2 54176  53.2170   4.3135 0003838  12.2570 358.1764 15.73255856  4474,6727.736,91.53,352.18300000000005,347.019,0.0
54176.0,STARLINK-5154,PAYLOAD,2022-11-25 14:00:01,15.73189819,0.0004096999999999,53.2168,2.6652,10.7435,88.6547,0.00067215,0.00094772,0.0,0 STARLINK-5154,1 54176U 22141V   22329.58334491  .00094772  00000-0  67215-3 0  9991,2 54176  53.2168   2.6652 0004097  10.7435  88.6547 15.73189819  4522,6727.924,91.534,352.546,347.033,0.0
54176.0,STARLINK-5154,PAYLOAD,2022-11-25 20:00:01,15.73268998,0.00039,53.217,1.4264,9.8252,66.2824,-0.0004087,-0.00057787,0.0,0 STARLINK-5154,1 54176U 22141V   22329.83334491 -.00057787  00000-0 -40870-3 0  9994,2 54176  53.2170   1.4264 0003900   9.8252  66.2824 15.73268998  4569,6727.698,91.529,352.18699999999984,346.94,0.0
54176.0,STARLINK-5154,PAYLOAD,2022-11-25 22:00:00,15.73242233,0.000386,53.2169,1.0135,9.4287,178.9348,-9.1988e-05,-0.00013543,0.0,0 STARLINK-5154,1 54176U 22141V   22329.91667824 -.00013543  00000-0 -91988-4 0  9991,2 54176  53.2169   1.0135 0003860   9.4287 178.9348 15.73242233  1304,6727.775,91.531,352.237,347.043,0.0
54176.0,STARLINK-5154,PAYLOAD,2022-11-26 12:00:00,15.73181096,0.0004105,53.2165,358.1289,6.3267,247.7398,0.00052,0.0007296,0.0,0 STARLINK-5154,1 54176U 22141V   22330.50001157  .00072960  00000-0  52000-3 0  9996,2 54176  53.2165 358.1289 0004105   6.3267 247.7398 15.73181096  4664,6727.949000000001,91.534,352.576,347.052,0.0
54176.0,STARLINK-5154,PAYLOAD,2022-11-26 14:00:01,15.73215699,0.0004138,53.2161,357.7163,5.3052,0.9852,8.100699999999999e-05,0.00010771,0.0,0 STARLINK-5154,1 54176U 22141V   22330.58334491  .00010771  00000-0  81007-4 0  9996,2 54176  53.2161 357.7163 0004138   5.3052   0.9852 15.73215699  1302,6727.85,91.532,352.499,346.931,0.0
54176.0,STARLINK-5154,PAYLOAD,2022-11-26 22:00:00,15.73184828,0.0003803,53.2164,356.0647,2.6398,92.6199,-0.00029148,-0.00041322,0.0,0 STARLINK-5154,1 54176U 22141V   22330.91667824 -.00041322  00000-0 -29148-3 0  9997,2 54176  53.2164 356.0647 0003803   2.6398  92.6199 15.73184828  4736,6727.938,91.534,352.362,347.245,0.0
54176.0,STARLINK-5154,PAYLOAD,2022-11-27 14:00:01,15.73192867,0.000418,53.2165,352.7675,2.0355,271.0118,0.00032344,0.00045018,0.0,0 STARLINK-5154,1 54176U 22141V   22331.58334491  .00045018  00000-0  32344-3 0  9998,2 54176  53.2165 352.7675 0004180   2.0355 271.0118 15.73192867  4834,6727.916,91.534,352.593,346.968,0.0
54176.0,STARLINK-5154,PAYLOAD,2022-11-27 22:00:00,15.7317059,0.0003926,53.2166,351.116,1.5798,0.4184,0.00027617,0.00038277,0.0,0 STARLINK-5154,1 54176U 22141V   22331.91667824  .00038277  00000-0  27617-3 0  9990,2 54176  53.2166 351.1160 0003926   1.5798   0.4184 15.73170590  4891,6727.979,91.535,352.485,347.20300000000015,0.0
54176.0,STARLINK-5154,PAYLOAD,2022-11-28 22:00:01,15.73147574,0.0003858,53.2161,346.1673,356.8717,272.0233,0.00068908,0.0009702,0.0,0 STARLINK-5154,1 54176U 22141V   22332.91668981  .00097020  00000-0  68908-3 0  9995,2 54176  53.2161 346.1673 0003858 356.8717 272.0233 15.73147574  5046,6728.045,91.536,352.505,347.314,0.0
54176.0,STARLINK-5154,PAYLOAD,2022-11-29 06:00:00,15.73251526,0.0004,53.2164,344.5193,359.214,358.5173,-0.00095802,-0.00133336,0.0,0 STARLINK-5154,1 54176U 22141V   22333.25001157 -.00133336  00000-0 -95802-3 0  9995,2 54176  53.2164 344.5193 0004000 359.2140 358.5173 15.73251526  5108,6727.748000000001,91.53,352.30400000000014,346.922,0.0
54176.0,STARLINK-5154,PAYLOAD,2022-11-29 14:00:01,15.73153452,0.0004167,53.2163,342.8702,359.7866,86.9544,-2.837e-06,-1.022e-05,0.0,0 STARLINK-5154,1 54176U 22141V   22333.58335648 -.00001022  00000-0 -28370-5 0  9990,2 54176  53.2163 342.8702 0004167 359.7866  86.9544 15.73153452  5156,6728.028,91.536,352.696,347.089,0.0
54176.0,STARLINK-5154,PAYLOAD,2022-11-29 22:00:00,15.73134655,0.0003938,53.2162,341.2191,0.2784,175.27599999999995,0.0006797999999999,0.00095638,0.0,0 STARLINK-5154,1 54176U 22141V   22333.91667824  .00095638  00000-0  67980-3 0  9993,2 54176  53.2162 341.2191 0003938   0.2784 175.2760 15.73134655  1301,6728.081,91.537,352.596,347.297,0.0
54176.0,STARLINK-5154,PAYLOAD,2022-11-30 06:00:00,15.73205071,0.0004125,53.216,339.5715,1.8086,262.6352,0.00014527,0.00019824,0.0,0 STARLINK-5154,1 54176U 22141V   22334.25001157  .00019824  00000-0  14527-3 0  9994,2 54176  53.2160 339.5715 0004125   1.8086 262.6352 15.73205071  5259,6727.880999999999,91.533,352.521,346.97,0.0
54176.0,STARLINK-5154,PAYLOAD,2022-11-30 14:00:01,15.73251146,0.0004242,53.2158,337.9190000000001,0.9349,352.5137,-0.00065072,-0.00091219,0.0,0 STARLINK-5154,1 54176U 22141V   22334.58335648 -.00091219  00000-0 -65072-3 0  9996,2 54176  53.2158 337.9190 0004242   0.9349 352.5137 15.73251146  1303,6727.749,91.53,352.468,346.76,0.0
54176.0,STARLINK-5154,PAYLOAD,2022-11-30 20:00:01,15.7315802,0.0004006,53.2165,336.6777,2.5219,327.5967,0.00016223,0.00022172,0.0,0 STARLINK-5154,1 54176U 22141V   22334.83334491  .00022172  00000-0  16223-3 0  9993,2 54176  53.2165 336.6777 0004006   2.5219 327.5967 15.73158020  5359,6728.015,91.536,352.575,347.185,0.0
54176.0,STARLINK-5154,PAYLOAD,2022-11-30 22:00:00,15.73126199,0.0003967,53.2165,336.264,2.7925,79.5592,0.00069447,0.00097704,0.0,0 STARLINK-5154,1 54176U 22141V   22334.91667824  .00097704  00000-0  69447-3 0  9990,2 54176  53.2165 336.2640 0003967   2.7925  79.5592 15.73126199  1306,6728.106,91.537,352.64,347.302,0.0
54176.0,STARLINK-5154,PAYLOAD,2022-12-01 06:00:00,15.73183623,0.0004203,53.2161,334.622,4.7529,166.5248,4.0038e-05,4.996e-05,0.0,0 STARLINK-5154,1 54176U 22141V   22335.25001157  .00004996  00000-0  40038-4 0  9996,2 54176  53.2161 334.6220 0004203   4.7529 166.5248 15.73183623  5410,6727.941999999999,91.534,352.635,346.97900000000016,0.0
54176.0,STARLINK-5154,PAYLOAD,2022-12-01 14:00:01,15.73261576,0.0004178,53.2156,332.9733,4.9011,255.3128,-0.00045977,-0.00064861,0.0,0 STARLINK-5154,1 54176U 22141V   22335.58334491 -.00064861  00000-0 -45977-3 0  9997,2 54176  53.2156 332.9733 0004178   4.9011 255.3128 15.73261576  1305,6727.72,91.53,352.395,346.774,0.0
54176.0,STARLINK-5154,PAYLOAD,2022-12-01 20:00:01,15.73202209,0.0004061,53.2158,331.7347,5.8053,231.1753,9.5705e-05,0.00012834,0.0,0 STARLINK-5154,1 54176U 22141V   22335.83335648  .00012834  00000-0  95705-4 0  9996,2 54176  53.2158 331.7347 0004061   5.8053 231.1753 15.73202209  5502,6727.889,91.533,352.486,347.022,0.0
54176.0,STARLINK-5154,PAYLOAD,2022-12-01 22:00:00,15.7321595,0.0004055,53.2156,331.3222,7.2297,341.9164,-0.00013851,-0.0002004,0.0,0 STARLINK-5154,1 54176U 22141V   22335.91667824 -.00020040  00000-0 -13851-3 0  9990,2 54176  53.2156 331.3222 0004055   7.2297 341.9164 15.73215950  1304,6727.85,91.532,352.4430000000001,346.987,0.0
54176.0,STARLINK-5154,PAYLOAD,2022-12-02 14:00:01,15.7326405,0.0004277,53.2147,328.0248,10.1524,156.859,-0.00059053,-0.00082966,0.0,0 STARLINK-5154,1 54176U 22141V   22336.58334491 -.00082966  00000-0 -59053-3 0  9994,2 54176  53.2147 328.0248 0004277  10.1524 156.8590 15.73264050  1308,6727.7130000000025,91.529,352.455,346.7,0.0
54176.0,STARLINK-5154,PAYLOAD,2022-12-02 22:00:00,15.73201465,0.0003971,53.2148,326.3735,8.9575,247.0224,0.00019143,0.00026338,0.0,0 STARLINK-5154,1 54176U 22141V   22336.91667824  .00026338  00000-0  19143-3 0  9995,2 54176  53.2148 326.3735 0003971   8.9575 247.0224 15.73201465  5674,6727.891,91.533,352.42800000000005,347.084,0.0
54176.0,STARLINK-5154,PAYLOAD,2022-12-03 14:00:01,15.7316541,0.0004221,53.2148,323.0758,4.7735,69.0693,0.00014107,0.00019199,0.0,0 STARLINK-5154,1 54176U 22141V   22337.58334491  .00019199  00000-0  14107-3 0  9992,2 54176  53.2148 323.0758 0004221   4.7735  69.0693 15.73165410  5787,6727.994000000002,91.535,352.699,347.019,0.0
54176.0,STARLINK-5154,PAYLOAD,2022-12-03 22:00:00,15.73180153,0.0004005,53.2149,321.4248,6.372000000000001,156.362,0.00044469,0.00062219,0.0,0 STARLINK-5154,1 54176U 22141V   22337.91667824  .00062219  00000-0  44469-3 0  9993,2 54176  53.2149 321.4248 0004005   6.3720 156.3620 15.73180153  1301,6727.9519999999975,91.534,352.511,347.122,0.0
54176.0,STARLINK-5154,PAYLOAD,2022-12-04 14:00:01,15.73225287,0.0004197,53.2148,318.1239,2.5422,338.0508,-2.4904e-05,-4.124e-05,0.0,0 STARLINK-5154,1 54176U 22141V   22338.58334491 -.00004124  00000-0 -24904-4 0  9994,2 54176  53.2148 318.1239 0004197   2.5422 338.0508 15.73225287  1304,6727.823,91.532,352.51199999999994,346.86400000000015,0.0
54176.0,STARLINK-5154,PAYLOAD,2022-12-04 22:00:00,15.73258776,0.0003609,53.2158,316.4686,345.5451,84.0207,-0.0046944,-0.00615446,0.0,0 STARLINK-5154,1 54176U 22141V   22338.91667824 -.00615446  00000-0 -46944-2 0  9991,2 54176  53.2158 316.4686 0003609 345.5451  84.0207 15.73258776  5993,6727.728,91.53,352.021,347.165,0.0
